{
    "links": {
        "self": "http://www.neowsapp.com/rest/v1/neo/3756917?api_key=iIulBulltgU6a56xZRHN4H3l9WmuAYTsLGpBGhQ2"
    },
    "id": "3756917",
    "neo_reference_id": "3756917",
    "name": "(2016 PJ1)",
    "designation": "2016 PJ1",
    "nasa_jpl_url": "http://ssd.jpl.nasa.gov/sbdb.cgi?sstr=3756917",
    "absolute_magnitude_h": 24.9,
    "estimated_diameter": {
        "kilometers": {
            "estimated_diameter_min": 0.0278326768,
            "estimated_diameter_max": 0.0622357573
        },
        "meters": {
            "estimated_diameter_min": 27.8326768072,
            "estimated_diameter_max": 62.2357573367
        },
        "miles": {
            "estimated_diameter_min": 0.0172944182,
            "estimated_diameter_max": 0.0386714948
        },
        "feet": {
            "estimated_diameter_min": 91.3145593761,
            "estimated_diameter_max": 204.1855621004
        }
    },
    "is_potentially_hazardous_asteroid": false,
    "close_approach_data": [
        {
            "close_approach_date": "2016-08-14",
            "close_approach_date_full": "2016-Aug-14 08:55",
            "epoch_date_close_approach": 1471164900000,
            "relative_velocity": {
                "kilometers_per_second": "10.2135197296",
                "kilometers_per_hour": "36768.6710265478",
                "miles_per_hour": "22846.6222831346"
            },
            "miss_distance": {
                "astronomical": "0.0738922861",
                "lunar": "28.7440992929",
                "kilometers": "11054128.609990607",
                "miles": "6868717.0116080966"
            },
            "orbiting_body": "Earth"
        }
    ],
    "orbital_data": {
        "orbit_id": "5",
        "orbit_determination_date": "2017-04-06 08:24:43",
        "first_observation_date": "2016-08-03",
        "last_observation_date": "2016-08-10",
        "data_arc_in_days": 7,
        "observations_used": 20,
        "orbit_uncertainty": "8",
        "minimum_orbit_intersection": ".0342305",
        "jupiter_tisserand_invariant": "3.266",
        "epoch_osculation": "2457604.5",
        "eccentricity": ".579878403955452",
        "semi_major_axis": "2.408058804149796",
        "inclination": "4.12266798699161",
        "ascending_node_longitude": "133.1637946235187",
        "orbital_period": "1364.894422201591",
        "perihelion_distance": "1.011677508168538",
        "perihelion_argument": "220.2546192456798",
        "aphelion_distance": "3.804440100131055",
        "perihelion_time": "2457639.036712579528",
        "mean_anomaly": "350.8907118921512",
        "mean_motion": ".2637566643574642",
        "equinox": "J2000",
        "orbit_class": {
            "orbit_class_type": "APO",
            "orbit_class_description": "Near-Earth asteroid orbits which cross the Earth’s orbit similar to that of 1862 Apollo",
            "orbit_class_range": "a (semi-major axis) > 1.0 AU; q (perihelion) < 1.017 AU"
        }
    },
    "is_sentry_object": false
}